TANSTAAFL-2             
1 62378U 24247B   26067.20753490  .00013897  00000+0  50872-3 0  9998
2 62378  44.9880 125.0934 0003072 298.8909  61.1666 15.28016845 67506
STARLINK-32878          
1 62892U 25024P   26068.09599059  .00003959  00000+0  15336-3 0  9994
2 62892  43.0033 328.8511 0002716 258.6168 101.4379 15.27569647 62175
